name	address	shire	city	zip_code	doctor	mail	url	number	region															
	23 Harley Street, London,			W1G 9QN	Dr Julian De Silva	www.londonfacialplasticsurgery.co.uk/contact-us	www.londonfacialplasticsurgery.co.uk		London															
	4 Smethurst Lane, Bolton, Greater Manchester			BL3 3QE	Louise Cunliffe	enquiries@thelookbylouise.co.uk	www.thelookbylouise.co.uk		North West															
	28 Newmarket St, Skipton BD23 2JE		Skipton	BD23 2JE	Rebecca Rennolds	enquiries@rebeccarennolds.com	https://www.fresha.com/a/rebecca-rennolds-clinic-skipton-uk-28-newmarket-street-q95hzo5m/booking		Yorkshire and The Humber															
																								
9 Harley Street	9 Harley Street, London,			W1G 9QY	Dr Florian Bast	contact@florian-bast.com	www.florian-bast.com		London															
25 Harley Street	25 Harley Street, London,			W1G 9QW	Dr Florian Bast	Appointments@phoenixhospitalgroup.com	www.25harleystreet.co.uk		London															
A & R LTD Snowberry Lane Clinic	Snowberry Lane Clinic 49 Shurnhold, Melksham Wiltshire			SN12 8DF	Dr Rupert Gabriel	denise@snowberrylane.co.uk	www.snowberrylane.co.uk		South West															
A New You	78 Trafalgar Sreet, Brighton,			BN1 4EB	Jackie Knight	info@a-newyou.co.uk	www.a-newyou.co.uk		South East															
AARM	Academy of Aesthetics Regenrative Medicine Ltd. 35 Devonshire Place, London.			W1G 6JP	Mr Ali Ghanem	enquiries@aestheticregenerativeclinic.com	www.aestheticregenerativeclinic.com		London															
Aarti Skin	2 Bayons Avenue, Scartho, Grimsby, North East Lincolnshire.			DN33 3LN	Aarti Nathwanni	info@aartisskin.co.uk	www.aartisskin.co.uk		Yorkshire and The Humber															
Aeon Aesthetics	54 Collingwood Crescent, Guildford,, London		London	GU1 2NU	Dr Manika	contact@aeonaesthetics.co.uk	https://www.aeonmedicalaesthetics.com/		London															
Aesthetic Beauty Centre	4 Grainger Park Road, Newcastle,			NE4 8DP	Dr Ashish Dutta	info@aestheticbeautycentre.co.uk	www.aestheticbeautycentre.co.uk		North East															
Aesthetically You	25 Rodney Street, Liverpool.			L1 9EH	Michelle Mclean	info@aestheticallyyou.co.uk	www.aestheticallyyou.co.uk		North West															
Aesthetics Ayrshire	40 Dalblair Road,			KA7 1UL	Ann Burnett	hello@aestheticsayrshire.com	www.aestheticsayrshire.com		Scotland															
Aesthetics of Liverpool	6 Castle Street, Liverpool, L2 0NB		Liverpool	L2 0NB			https://www.aestheticsofliverpool.co.uk/	4,41512E+11	North West															
Aintree	69 Ormskirk Frontpage RD		Liverpool	L9 5AE		hannahpate1996@gmail.com	https://www.hannahmccoyclinic.co.uk																	
Alison Taylor Medical Cosmetics	16/17 Clarence Parade, Cheltenham GL50 3PA		Cheltenham	GL50 3PA	Dr Alison Taylor	info@alison-taylor.com	https://alison-taylor.com	4,47888E+11	South West															
Ambra Aesthetic Clinic	Gainford, St Andrew's Cl, North Finchley, London			N12 8BA	Dr. Maryam McMillan	info@ambraclinic.com	www.ambraclinic.com		London															
Amica Aesthetics	Upper floors, 78 Street Lane, Roundhay.			LS8 2AL	Clare	Info@amicaaesthetics.co.uk	www.amicaaesthetics.co.uk		Yorkshire and The Humber															
Andrew Culbard	Philip Friel Advanced Dentistry, 154 Hyndland Road, Glasgow			G12 9HZ	Dr Andrew Culbard	culbarddental@gmail.com	https://andrewculbard.com/	1 413 397 579	Scotland															
AQUA TRURO	Aqua Truro, 23 Victoria Square Truro, Cornwall, TR1 2SD		Truro	TR1 2SD		beauty@aquaskincare.co.uk	https://www.aquaskincare.co.uk/treatment_category/skin-consultation/	4,41872E+11	South West															
Arden Clinic	Woodroyd Medical Centre, Bradford BD5 8EL		Bradford	BD5 8EL		info@ardenclinic.com	https://www.ardenclinic.com/	4,48455E+11	Yorkshire and The Humber															
Array Aesthetics	231 Scottish Provident Building, 7 Donegall Square W, Belfast			BT1 6JH	Dr Chris Hutton	enquiries@arrayaesthetics.com	www.arrayaesthetics.com		Northern Ireland															
Aspire Clinic	Third Floor Suite, Madejski Stadium, Reading			RG2 0FL	Jenny O'Neil	info@aspireclinic.com	www.aspireclinic.com		South East															
Astellas	60 Minchenden Cres, Southgate, London.			N14 7EN	?	?	?		London															
Atelier Clinic	76 High Street, Egham, Surrey			TW20 9HE	Dr Aggie Zatonska	reception@atelier.clinic	www.zatonska.com		South East															
Aureum Skin	1 Whitehall Parade, London Road, East Grinstead,			RH19 1AP	Dr Hema Santhosh	treatments@aureumskin.co.uk	https://www.aureumskin.co.uk		South East															
Avalon Laser Clinic	1 Chislehurst Road, Orpington, Kent.			BR6 0DF	Dr Rebecca Bradbury	info@thebeautydoctors.co.uk	www.thebeautydoctors.co.uk		London															
Axis Clinic	32 Broadway Parade, Crouch End		London	N8 9DB		info@axisclinic.co.uk	www.axisclinic.co.uk		London															
Bank Medispa Hale Cheshire	185 Ashley Rd, Hale, Altrincham			WA15 9SQ	Dr Ahmed	www.bankmedispa.co.uk/contact	www.bankmedispa.co.uk		North West															
Basingstoke Wellness Ltd	2 Cross Street, Basingstoke,			RG21 7DQ	Joshua Burniston	contact@basingstokewellness.com	www.basingstokewellness.com		South East															
Be Cosmetic Clinic	57 Harley street, London 991 Abbeydale Road, Sheffield			S7 2QD	Dr Hassan Nurein	clinic@drhassannurein.com	www.drhassannurein.co.uk		Yorkshire and The Humber															
Beauty by Dr Theo	52 Lawns Way, Romford, Essex, England,			RM5 3TH	Dr Theo Potgieter	contact@beautybydrtheo.com	www.beautybydrtheo.com		London															
Beauty Doctors	5 Tillingdown Ln, Caterham			CR3 6RU	Rebecca Bradbury	info@thebeautydoctors.co.uk	www.thebeautydoctors.co.uk		South East															
Bella Derma Aesthetics	24 North Street, Worthing, West Sussex,			BN11 1DU	Abigail Morra	info@belladerma.co.uk	www.belladerma.co.uk		South East															
Bella Vou	45-47 The Pantiles, Tunbridge Wells			TN2 5TE	Dr Cormac Joyce, Dr Mark Holmes, Dr Amir	hello@bellavou.co.uk	https://www.bellavou.co.uk		South East															
Berkshire Aesthetics	Furze Platt Road, Maidenhead, Berkshire.			SL6 6PR	Dr Selena Langdon	info@berkshireaesthetics.com	www.berkshireaesthetics.com		South East															
Bridge Street Skin Clinic	6 BRIDGE STREET, RG17 0EH, HUNGERFORD BERKSHIRE		Hungerford	RG17 0EH	Dr Saran Patter, Dr Jas Jhaj	hello@bridgestreetskinclinic.co.uk	https://bridgestreetskinclinic.co.uk	4,41489E+11	South East															
Broadway Clinic	16 BROADWAY, STRATFORD		London	E15 4QS			https://broadway.clinic/	4,4207E+11	London															
BS Aesthetics	6 Churchmead, Bassaleg, Newport,			NP10 8NA	Rebecca	info@bsaesthetics.co.uk	www.bsaesthetics.co.uk		Wales															
BS Plastic Surgery Ltd	33 Newton Road, Torquay.			TQ2 5DB	Dr Brian Simons	info@ministryofaesthetics.co.uk	www.ministryofaesthetics.co.uk		South West															
Calla Aesthetics	Friary Farm, Hilton Rd, Etwall, Derby,			DE65 6HZ	Cheryl Pullen	www.calla-aesthetics.co.uk/contact	www.calla-aesthetics.co.uk		East Midlands															
Cambridge Clear Beauty	3 Breaks House, Mill Court, Hinton Way, Great Shelford, Cambridge,			CB22 5LD	Mr Tariq Ahmad	info@cambridgeclearbeauty.co.uk	www.cambridgeclearbeauty.co.uk		Eastern															
Cardiff Cosmetic Clinic	The City Surgery187 City RoadCardiff			CF24 3WD	Dr Rajeev	rajeev3@aol.com	www.cardiffcosmeticclinic.com		Wales															
Carisbrooke Dental Practice	238 London Road		Leicester	LE2 1RL	Dr Julia Coelho				East Midlands															
Ceder House Clinic	Shrewsbury Business Park, Shrewsbury.			SY2 6LG	Dr Sitka	?	?		West Midlands															
Centre for Restorative Dermatology	Blackrock Clinic, Rock Rd, Intake, Blackrock, Co. Dublin, Ireland				Dr. Rosemary Coleman	office@restorativedermatology.ie	www.restorativedermatology.ie																	
Centre for Surgery (Marylebone)	106 Crawford Stree, Marylebone. London.			W1H 2HY	Dr Omar Tillo	contact@centreforsurgery.com	www.centreforsurgery.com		London															
Centre for Surgery (Watford)	Unit 2 Colne Way, Watford.			WD24 7NE	Dr Omar Tillo	contact@centreforsurgery.com	www.centreforsurgery.com		Eastern															
Clinetix Rejuvenation Limited	20 Hamilton Road, Bothwell,			G71 8NA	Simon Ravichandran	info@clinetix.co.uk	www.clinetix.co.uk		Scotland															
Clinic Privé	251 Brompton Road, Knightsbridge Chelsea London			SW3 2EP	Lisa Franklin	appointments@lisafranklin.london	www.lisafranklin.london		London															
Clnq	49-51 King Street, Knutsford,			WA16 6DX	Dr Reza Nassab	hello@clnq.com	www.clnq.com		North West															
CNS Aesthetics	497b Staines Road, Feltham.			TW14 8BN	Chloe Theunissen	Info@cnsaesthetics.com	www.cnsaesthetics.com		London															
Cosderm	4th Floor, The Hale Clinic, 4 Harley Street, London,			W1G 9PB	Dr Surbhi Virmani	drsvaesthetics@gmail.com	www.cosderm.co.uk		London															
Cosmedica	6 Moor Oaks Road, Sheffield S10 1BX		Sheffield	S10 1BX		info@mycosmedica.co.uk	https://mycosmedica.co.uk	4,41143E+11	Yorkshire and The Humber															
Cosmedocs	418 Burton Road, Derby.			DE12 6AJ	Dr Tayyab Bhatti	info@cosmedocs.com	www.cosmedocs.com		East Midlands															
Cosmetics Doctor	3 Abbey Road, Old Buckenham, Norfolk.			NR17 1PU	Dr Amber Woodcock	dramber@cosmeticsdoctor.co.uk	www.cosmeticsdoctor.co.uk		Eastern															
Cranley Clinic	106 Harley St, Marylebone, London			W1G 7JE	Dr Ali Ghanem	ali.m.ghanem@gmail.com	www.cranleyclinic.com		London															
Dapper - Grooming & Aesthetics	16 The Mall, W5 2PJ, Ealing Broadway				?	info@thedapperman.co.uk	www.thedapperman.co.uk																	
Dermaspa	K, Haybrook Barn, Newport Rd, Broughton, Milton Keynes			MK16 0HU	Nilam Holmes	info@dermaspa.co.uk	www.dermaspa.co.uk		South East															
DERMATOLOGY CLINIC SOUTHAMPTON	Kaizen, 7 Brook Lane Warsash, Southampton, Hampshire, SO31 9FH		Southampton	SO31 9FH		info@kaizenmedical.co.uk	https://kaizenmedical.co.uk	4,42394E+11	South East															
Dermatology Consulting	6 Frant Rd, Tunbridge Wells, Kent,			TN2 5SE	Dr Anne Farrell	info@dermatologyconsulting.co.uk	www.dermatologyconsulting.co.uk		South East															
Dermis Clinics	42 Brook Street, Mayfair, London			W1K 5DB	Dr Sef	info@dermisclinics.co.uk	www.dermisclinics.co.uk		London															
Dr Ayad Harb Clinic	3 London Rd, Bicester			OX26 6BW	Dr Ayad Harb	info@qosmetic.co.uk	www.qosmetic.co.uk		South East															
Dr Bejma Clinic	7 Cottage Road, Headingley, Leeds		Leeds	LS6 4DD	Dr Bejma	drbejmaclinic@gmail.com	https://drbejma.com/about-us	7522775233	Yorkshire and The Humber															
Dr Brian Fu	62 A, Redcliffe Square, London,			SW10 9BN	Dr Brian Fu	dr.brianfu@gmail.com	No Listing		London															
Dr Dallas Clinic	Morrison Chambers, 32 Nassau St		Dublin	DO2 EYC7	Dr Dallas Walker	dallas@drdallasclinic.com	https://drdallasclinic.com/	15477771																
Dr Darren Mckeown	202 W George St, Glasgow			G2 2PQ	Dr Darren Mckeown	www.drdarrenmckeown.com/contact-us-2	www.drdarrenmckeown.com		Scotland															
Dr David Jack	96 Harley St, Marylebone, London			W1G 7HY	Dr David Jack	clinic@drdavidjack.com	www.drdavidjackclinic.com	2075896309	London															
Dr Dray Clinic	20 Canning Pl, South Kensington, London			W8 5AD	Dr Amy Bibby	info@drdray.co.uk	www.drdray.co.uk		London															
Dr Edwin Anthony	99 Harley St, Marylebone, London.			W1G 6AQ	?	enquiries@eaclinic.co.uk	www.eaclinic.co.uk		London															
Dr Glancey Clinics Ltd	Constable Country Medical Centre, Heath Road, East Bergholt, Colchester			CO7 6RT	Dr Lucy Glancey	info@drglancey-clinics.com	www.drglancey-clinics.com		Eastern															
Dr Helen Marsden Aesthetics	55A Old Elvet Durham DH1 3HN		Durham	DH1 3HN	Dr Helen Marsden	helenmarsden@hotmail.co.uk	https://drhelenmarsdenaesthetics.co.uk/	4,41916E+11	North East															
Dr Joney De Souza	49 Blandford St		London	W1U 7HH	Dr Joney De Souza	clinic@drjoneydesouza.com	https://www.drjoneydesouza.com/	2070430748	London															
Dr Joshua Van der Aa	The London Wellbeck Hospital Ten Harley Street, London				Dr Joshua	info@drjoshua.co.uk	www.drjoshua.co.uk																	
Dr Julia Sen	BHI Parkside	Bromsgrove	Stourbridge	B61 0AZ	Dr Julia Sen	hello@drjuliasen.co.uk	https://drjuliasen.co.uk/	7548964367	West Midlands															
Dr Leah Clinics	14 York Hill, Loughton, Essex, London		London	IG10 1RL	Dr Leah	essex@drleah.co.uk	https://www.drleah.co.uk/clinics/essex-clinic	2078775999	London															
Dr Medispa Loughton	8 Forest Rd, Loughton			IG10 1DX	Dr Munir Somji	hello@drmedispa.com	www.drmedispa.com		Eastern															
Dr Medispa Marleybone	59 Chiltern St, London.			W1u 6NF	Dr Munir Somji	hello@drmedispa.com	www.drmedispa.com		London															
Dr Motox - Harley Street	7 Harley Street, W1G 9QD, London		London	W1G 9QD	Dr Motox	help.gb@booksy.com	https://booksy.com/en-gb/41417_dr-motox-harley-street_aesthetic-medicine_311817_london	4,4739E+11	London															
Dr Natalie Clinics	85 King street, Whalley, Clitheroe.			BB7 9SW	Dr Natalie Walsh	www.drnatalie.co.uk/contact	www.drnatalie.co.uk		North West															
Dr Natalie LTD	85 King street	Clitheroe	Whalley	BB7 9SW		drnatalieanne@gmail.com		7557878935	North West															
Dr Nicola Willis	Ebor House, 7 Bentinck Cres, Troon			KA10 6JN	Dr Nicola Willis	info@drnicolawillis.com	www.drnicolawillis.com		Scotland															
Dr Nima Clinic	Surrey London locations				Dr Nima	www.drnimalondon.com/contact	www.drnimalondon.com		London															
Dr Ramia Mokbel	?				Dr Ramia Mokbel	?	?																	
Dr Sobia Medispa	The Old Post House, 46 King Street, Clitheroe.			BB7 2EU	Dr Sobia Syed	hello@drsobiamedispa.co.uk	www.drsobiamedispa.co.uk		North West															
Dr SW Clinics	77 Harley Street, London			W1G 8QN	Dr Sherif Wakil	info@drswclinics.com	www.drswclinics.com		London															
Dr Tatiana Clinic	35 Devonshire Pl, Marylebone, London			W1G 6JP	Dr Rishi, Mr Massimilano, Dr Tatiana	info@DrTatiana.co.uk	www.drtatiana.co.uk		London															
Dr Victoria's Cosmetic Dermatology	34 St Thomas St, Winchester			SO23 9HJ	Dr Victoria & Dr Prem Gauba	victoria.gauba@aol.com	www.drvictoriag.co.uk		South East															
Dr Vlok	45 Park Square North, Leeds			LS1 2NP	Dr Vlok	leedsenquiries@theprivateclinic.co.uk	www.theprivateclinic.co.uk/our-clinics/leeds		Yorkshire and The Humber															
Dr Yusra					Dr Yusra		https://dryusra.com	4,43332E+11																
Dr. Kate Aesthetics	Vicars Moor Ln, Winchmore Hill, London			N21 2QH	Dr Kate Carr	hello@drkateaesthetics.co.uk	www.drkateaesthetics.co.uk		London															
Dr. Leah	24 Chiswell St		London	EC1Y 4TY	Dr. Leah	Leah@drleah.co.uk	https://www.drleah.co.uk/		London															
DRS Cosmetic and Skincare Clinic	2 Oxford Rd, Middlesborough.			TS5 5DT	Dr Rashpal Singh	drrashpalsingh@gmail.com	www.drrashpalsingh.co.uk		North East															
E R Aesthetics	27 Dovedale Road, Liverpool.			L18 5EP	Elle McCaldon	?	?		North West															
EA Clinic	99 Harley St, Marylebone, London			W1G 6AQ	Dr Edwin Anthony	enquiries@eaclinic.co.uk	www.eaclinic.co.uk		London															
Ecladent	53 Brockenhurst Gardens		London	NW7 2JY	Afsaneh	afsanehdehpour@hotmail.com	https://www.ecladent.co.uk/	2089599392	London															
Ecooner	80 Harley Street, London, W1G 7HL		London	W1G 7HL			http://www.ecooner.com	4,4203E+11	London															
Eden Health & Wellness	The Ashcroft Clinic, 2 Ashcroft Drive, Denham, Buckinghamshire			UB9 5JF	Dr. A. S. Grewal	?	www.edenhw.com		South East															
Eighth & Eden	The Paddocks, Uphampton, Ombersley, Worcestershire,			WR9 0JR	Dr Chloë	enquire@eighthandeden.co.uk	https://www.eighthandeden.co.uk/	1905783888	West Midlands															
Elements Medi Spa	81 Thorne Road, Doncaster.			DN1 2ES	Sandy Green	?	?		Yorkshire and The Humber															
Elevate Medical Aesthetics	20 St. John's North, Wakefield			WF1 3QA	Dr Nick Sinden	admin@nicksinden.co.uk	https://www.drnicksinden.co.uk/	7730577277	Yorkshire and The Humber															
Elite Laser Aesthetics	Rossdall House Unite 2 Bishopstown		Cork	T12HH0	Melanie O' Driscoll		https://elitelaser.ie/																	
Elixir Cosmetics Ltd	4 Stag Lane Edgware, London.			HA8 5JY	Dr Awais Qureshi	elixir.enquiry@mail.com	www.elixircosmetics.com		London															
Epilium	25-27 George St, Marylebone, London			W1U 3QA	Valentine Fellous	www.epilium.co.uk/contact	www.epilium.co.uk		London															
Esthinity Skin & Body Clinic	132 West Regent Street, Glasgow.			G2 2RQ	Justyna Fuminkowska	enquiries@esthinity.co.uk	www.esthinity.co.uk		Scotland															
Eterno Aesthetics Sheffield	Unit 9a, The Old Dairy, Broadfield Rd, Sheffield			S8 0XQ	Hannah Depledge	info@eternoaesthetics.co.uk	www.eternoaesthetics.co.uk		Yorkshire and The Humber															
Evolve Medical	1 Priesthorpe Avenue, Pudsey			LS28 7TG	Rachel Hirst	Info@evolvemedical.co.uk	www.evolvemedical.co.uk		Yorkshire and The Humber															
Face Clinic aesthetics	90 Hagley Road		Birmingham	B16 8LU	Dr Nabila	hello@facestudioclinic.com	https://www.facestudioclinic.com/	8001958372	West Midlands															
Face Medical Aesthetics	Unit 3, Atlas court,	Rotherham	Brinsworth	S60 5DL	Danielle Tolley		https://barefaced.book.app	1709234122	Yorkshire and The Humber															
FACEmed	Crays Hill, Billericay, Essex,			CM11 2XP	Ms Monica Fawzy	enquiries@facemed.co.uk	www.facemed.co.uk		Eastern															
Farleigh Medical	10 Old Farleigh Rd, South Croydon CR2 8PB		South Croydon	CR2 8PB		info@farleighmedical.co.uk	https://www.farleighdental.co.uk/	4,4208E+11	London															
Femiclinics Aesthetics	64a High Street, Tarporley, Cheshire.		Tarporley	CW6 0AG	Dr Helen Kelly	https://femiclinics-aesthetics.com/contact	www.femiclinics-aesthetics.com	4,4183E+11	North West															
Fertility Assist	London				Dr Nataly Atalla	info@fertilityassist.co.uk	www.fertilityassist.co.uk																	
Fiji Skin Clinic & Colonics	147 sutton Road Wylde	Birmingham	Sutton Coldfield	B23 5TN	Kay Brown	kaybrownuk2000@yahoo.co.uk	www.fijiskinclinic.co.uk	1213508482	West Midlands															
First Health Medical	43 Stonecot HillSutton			SM3 9HH	Dr Fouzia Rizvi	info@firsthealthmedical.co.uk	www.firsthealthmedical.co.uk		London															
Fourways Dental Surgery	4 Sevenoaks Road, Borough Green, Kent, Sevenoaks,			TN15 8BB	Dr Aviva Riley	info@fourwaysdentalsurgery.com	https://www.fourwaysdentalsurgery.com/	1732882413	South East															
FrownDocs	37 Dumbarton Road, Stirling,			FK8 2LQ	Dr Caroline Steele	hello@frowndocs.co.uk	https://frowndocs.co.uk/	1786447229	Scotland															
Glow Beauty Centre	62 Deepdale Rd, Preston.			PR1 5AR	Naseem Patel	glowbeautycentre@gmail.com	www.glowbeautycentre.co.uk		North West															
Graham Webb Beauty Clinic	31 London Rd, Sevenoaks			TN13 1AR	Graham Webb	info@gw-bc.co.uk	www.gw-bc.co.uk		South East															
Greenleaves Dental Practice	244 High Street, Potters Bar Hertfordshire			EN6 5DB	Dr Martin Whelan	practice@greenleavesdental.co.uk	https://greenleavesdental.co.uk/	1707654328	Eastern															
Hampton Clinic	Hampton Clinic, Hampton Manor, Shadowbrook Lane, Hampton-in-Arden Solihull			B92 0EN	Dr Lorraine Hill	treatments@hamptonclinic.co.uk	www.hamptonclinic.co.uk		West Midlands															
Hannah Macoy Clinic	Aintree, 69 Ormskirk Frontage Road,	Liverpool		L9 5AE	Hannah McCoy	info@hannahmccoyclinic.co.uk	https://www.hannahmccoyclinic.co.uk/	7539422873	North West															
Harley Street Injectables	77 Harley Street, Marylebone, London			W1G 8QN	Alice Henshaw	info@harleystreetinjectables.com	https://www.harleystreetinjectables.com/	7540201973	London															
Harley-Surgery	40 Harley Street, London.			W1G 9PP	Dr Riccardo Frati (Plastic Surgeon)	drfrati@gmail.com	www.harley-surgery.com		London															
Hawkins Beauty Clinic	364 Coombe Lane, West Wimbledon, London,			SW20 0RJ	?	enquiries@hawkinsclinic.com	www.hawkinsclinic.com		London															
House Of Pure	5 Buttermarket Ely			CB7 4NY	Laura Marshall and Cheryl Bailey	info@houseofpure.co.uk	www.houseofpure.co.uk		Eastern															
Immaculate Touch Beauty	Shepherds, The Heath, East Malling			ME19 6JL	?	info@immaculatetouchbeauty.co.uk	www.immaculatetouchbeauty.co.uk		South East															
Infinity Aesthetics	Summerland Lodge, 28 Bishops Wood Grove, Newton, Swansea			SA3 4BP	Dr Owen Thomas	owen@infinityoh.co.uk	https://infinityclinic.co.uk/	1792807005	Wales															
Innersense Aesthetics (Wetherby)	15 Church Street, Wetherby.			LS22 6LP	Lee Rowe	info@innersense-aesthetics.com	www.innersense-aesthetics.com		Yorkshire and The Humber															
Innersense Aesthetics (York)	136 Boroughbridge Road, York.			YO26 6AL	Lee Rowe	info@innersense-aesthetics.com	www.innersense-aesthetics.com		Yorkshire and The Humber															
JCosmetics	1D Buttershaw Lane, Bradford,			BD6 2DD	Jemma Pogson	hello@jcosmetics.co.uk	www.jcosmetics.co.uk		Yorkshire and The Humber															
JCosmetics	20 Altrincham Road, Wilmslow, Cheshire.			SK9 5NG	Jemma Pogson	hello@jcosmetics.co.uk	www.jcosmetics.co.uk		North West															
JCosmetics	19 Lypiatt Road, Corsham , Wiltshire.			SN13 9JD	Jemma Pogson	hello@jcosmetics.co.uk	www.jcosmetics.co.uk		South West															
Jeremy Isaac & Associates	68 Commercial Rd, Port Talbot			SA13	Jeremy Isaac	hello@livelifesmiling.com	www.walesdentists.co.uk/jeremy-isaac		Wales															
KGT Aesthetics	295 Tong Street, Bradford,			BD4 9QS	Sarah Chambers	info@kgtaesthetics.co.uk	www.kgtaesthetics.co.uk		Yorkshire and The Humber															
KL Cosmetic Clinics	87 Nutwell Lane Armthorpe Doncaster			DN3 3JN	Stacey Thompson	info@klcosmeticclinics.co.uk	www.klcosmeticclinics.co.uk		Yorkshire and The Humber															
Koia London	32-34 Notting Hill Gate, London		London	W113HX		info@koia.london	https://www.koia.london/	2072298686	London															
KP Aesthetics	26 Park Road, Hale, Altrincham.			WA15 9NN	Khatra Paterson	info@kpaesthetics.co.uk	www.kpaesthetics.co.uk		North West															
Laser care skin clinic	121 Broadway Ealing			W13 9BE	Dr Musarrat Naz	Info@lcscclinic.com	www.lcscclinic.com	020-88405835	London															
Laserase Medical Skincare Clinic	525 Antrim Road		Belfast	BT53BS	Rory Mckeown	rdm_84@hotmail.co.uk		2890777772																
Lauren Barker Aesthetics	181 Chatsworth Rd, Chesterfield			S40 2BA	Lauren Barker	laurenbarkeraestheticsnurse@outlook.com	www.facebook.com/laurenbarkeraestheticsnurse		East Midlands															
Lauren Turner Aesthetcis	133 Lordship lane		London	SE22 8HX	Lauren Turner	Aestheticsbylauren@outlook.com		2082263800	London															
LH Aesthetics	40 Wilbury Road, Brighton & Hove, East-Sussex			BN3 3JP	Louise Hallam	www.lh-aesthetics.co.uk/contact	www.lh-aesthetics.co.uk		South East															
LMS Wellness	35 Ixworth place, Chelsea, London.			SW3 3QX	Dr Shawana Vali	info@lmswellness.com	www.lmswellness.com		London															
Look Lovely	4 WELLINGTON ROAD, ST JOHN'S WOOD,		London	NW8 9SP		michelle@looklovelylondon.co.uk	https://www.looklovelylondon.co.uk	2039002756	London															
Lotus Clinic	943 Finchley Road, London		London	NW11 7PE	Dr. Michael Frankl	info@lotusclinic.co.uk	https://www.lotusclinic.co.uk/?utm_source=google&utm_medium=organic&utm_campaign=gmb-listing	2045382758	London															
Luxe Skin by Doctor Q	227 Ingram Street, Glasgow.			G1 1DA	Dr Usman Qureshi	info@luxeskin.co.uk	www.luxeskin.co.uk		Scotland															
MBA Clinics	Oldfield Lodge, Bridge Road, Maidenhead.			SL6 8DG	Petrina Nugawela	info@mbacliics.com	www.mbaclinics.com		South East															
MD Aesthetics	1st Floor, 30 Market Place, Hitchin, Herts.			SG5 1DY	Mr Marcus Davis	info@mdaesthetics.co.uk	www.mdaesthetics.co.uk		Eastern															
Med Fiore Aesthetic Clinic	2 Stamford Park Road, Hale, Altrincham. Cheshire.			WA15 9EN	Mr Giuseppe Fiore	info@fioreclinic.co.uk	www.fioreaestheticclinic.co.uk		North West															
Medical Aesthetics by Dr Andre	2 Trafford Road, Alderley Edge,			SK9 7NT	Dr Andre	admin@drandre.co.uk	www.drandre.co.uk		North West															
Medicetics	37 Connaught St, St George's Fields, London			W2 2AZ	Dr. Vicky Dondos	info@medicetics.com	www.medicetics.com		London															
Medicus Pharmacy	7 Christie Way, Manchester M21 7QY		Manchester	M21 7QY		medicuspharmacyuk@gmail.com	https://medicuspharmacy.co.uk	4,48009E+11	North West															
Mediface Aesthetics	Off york rd		Doncaster	DN5 9AY		Info@Mediface-aesthetics.co.uk	https://www.fresha.com/a/mediface-medical-aesthetics-skin-clinic-doncaster-mediface-aesthetics-cusworth-court-grove-avenue-0u1nkriy	1302354969	Yorkshire and The Humber															
Mediskin	8 Thornton Lane, Markfield, Leicester.			LE67 9RP	Dr Gunjan Virmani	gunjanvirmani@yahoo.co.uk	?		East Midlands															
Medispa Cheshire	Castlerock House, Wilmslow Road, Alderley Edge, Cheshire.			SK9 7QL	Dr Nyla Raja	ask@doctornyla.com	www.doctornyla.com		North West															
Ministry of Aesthetics	33 Newton Road, Torquay,			TQ2 5DB		info@ministryofaesthetics.co.uk	www.ministryofaesthetics.co.uk	7832633300	South West															
Model Standards	16a Mildenhall way		Liverpool	L25 2SR	Lauren Gibson	Help@modelstandards.Co.uk	https://www.modelstandards.co.uk/	7415100412	North West															
Model Strandards	16a Mildenhall Rd		Liverpool	L25 2SR		kirsty@modelstandards.co.uk	https://www.modelstandards.co.uk/	7415100412	North West															
My Skin Medics	Hey Green House, Waters Road, Marsden.			HD7 6NG	Rachel Fox	info@myskinmedics.co.uk	www.myskinmedics.co.uk		Yorkshire and The Humber															
MySkin Clinic	Allerton Health Centre Belldean Road, Bradford BD15 7WA		Bradford	BD15 7WA	Dr Sadia Khan		https://myskyn.co.uk	4,41275E+11	Yorkshire and The Humber															
Nasra Khan	396 Forest Road, Walthamstow, London.			E17 5JF	Nasra Khan	nazra_khan@hotmail.co.uk	?		London															
NY Skin Clinic	92 Fonthill Road, Aberdeen			AB11 6UL	Elaine	info@nyskinclinic.co.uk	www.nyskinclinic.co.uk		Scotland															
Oakwood Beauty	No.10 The Square, Riverhead, Sevenoaks, Kent.			TN13 2AB	Lisa Miller	info@oakwoodbeauty.co.uk	www.oakwoodbeauty.co.uk		South East															
Olivier Amar	120 Sloane Street, London			SW1X 9BW	Mr Olivier Amar	pa@olivieramar.co.uk	www.olivieramar.co.uk		London															
Omniya Clinic	3A Montpelier St, Knightsbridge, London			SW7 1EX	Dr Ayad Harb	hello@omniya.co.uk	www.omniya.co.uk		London															
One skin Clinic	10 Harley Street		London	W1G 9PF	Dr Najia Shaikh	info@oneskinclinic.co.uk	www.oneskinclinic.co.uk		London															
Orchard Cosmetic Clinic	above Bijou Hair Salon, 13 Lugley St, Newport			PO30 5HD	Dr Hayley Elsmore	orchardcosmeticskin@gmail.com	www.orchardcosmetic.co.uk		South East															
Orchard House Dental Care	Orchard House, 16 Ainderby Road, Northallerton, North Yorkshire.			DL7 8HD	Stephanie Phillips	info@orchardhousedentalcare.com	www.orchardhousedentalcare.com		Yorkshire and The Humber															
P&D Surgery - London	The London Welbeck Hospital, London				Mr M D Humzah	 info@pdsurgery.co.uk	www.pdsurgery.co.uk																	
P&D Surgery - Wolverhampton	Summerfield Healthcare, Wolverhampton				Mr M D Humzah	 info@pdsurgery.co.uk	www.pdsurgery.co.uk																	
Pellisandco	26 Higher Bridge Street, Bolton BL1 2HA		Bolton	BL1 2HA		info@pellisandco.com	https://pellisandco.com/	4,41204E+11	North West															
Perfect Eyes	121 Harley St, Marylebone, London			W1G 6AX	Sabrina	shahdesai@hotmail.com	www.perfecteyesltd.com		London															
Perfect Skin Solutions	121 Winter Road, Southsea, Hampshire,			PO4 8DS	Dr Dev Patel	info@perfectskinsolutions.co.uk	www.perfectskinsolutions.co.uk		South East															
PJ Aesthetic Clinic	29 Temple Fortune Parade, Finchley Road		London	NW11 0QS	Dr. Pechman	info@drpjaestheticclinic.com	https://www.drpjaestheticclinic.com/		London															
Premier Laser Clinic - Liverpool Street Branch	4 Spital Sqare		London	E1 6DU	Lucy Xu	admin@premierlaserclinic.co.uk	www.londonpremierlaser.co.uk/clinics/liverpool-street		London															
Premier Laser Clinic - Nottinghill Street Branch	2 Wellington Terrace, London. W2 4LW		London	W2 4LW	Lucy Xu	admin@premierlaserclinic.co.uk	https://www.londonpremierlaser.co.uk/clinics/notting-hill/		London															
Prima Aesthetics	6 King's Buildings, King Street, Chester		Chester	CH1 2AJ	Glyn Estebanaz	info@primaaesthetics.co.uk	https://www.primaaesthetics.co.uk/	1244941574	North West															
Professional Skin	36 Shaw Crescent, South Croydon.			CR2 9JA	Babita Parkas	www.professionalskin.uk/page/contact-us	www.professionalskin.uk		London															
Pulse Light Clinic (Bank Branch)	First Floor, 20 Eastcheap, London.			EC3M 1EB	?	info@pulselightclinic.co.uk	www.pulselightclinic.co.uk		London															
Pure Perfection Clinic	Chester Rd, Rossett, Wrexham			LL12 0HW	Sara Cheeney	hello@pureperfectionclinic.com	www.pureperfectionclinic.com		Wales															
Quinn Clinics	4 Redland Court Road, Bristol,			BS6 7EE	John Quinn	john@quinnclinics.co.uk	www.quinnclinics.co.uk		South West															
Rachael Cornish aesthetics	10 Chestnut Close, Eastleigh, England, SO53 3HH	Hampshire	Eastleigh	SO53 3HH	Rachael cornish	rachael_cornish@hotmail.co.uk			South East															
Re-enhance Medical & Dental Clinic	Progress House, 17 Cecil Rd, Hale, Altrincham			WA15 9NZ	Dr Martin Kinsella	info@re-enhance.com	www.re-enhance.com		North West															
Rebecca Jade Beauty & Aesthetics	30 High Street, Harpenden, Hertfordshire.			AL5 2SX	Rebecca Jade	info@rebeccajadebeauty.co.uk	www.rebeccajadebeauty.co.uk		Eastern															
Reds Salon	3-4 Cairnside South, East Herrington,		Sunderland	SR3 3LS		info@redssalons.com	http://www.redshairandbeauty.com/		North East															
Reforme Medical Centre	1 Ty Glas Road Taibach, Llanishen.  			CF14 5EB	Dr Prashant Murugkar	beautydoctorcardiff@gmail.com	www.reformemedical.co.uk		Wales															
Regents Park Aesthetics	19 Wimpole St, Marylebone, London			W1G 8GE	Kay Greveson	kay@regentsparkaesthetics.co.uk	www.regentsparkaesthetics.co.uk	2075804813	London															
Rejuv Lab	4 Harley Street, London, UK,			W1G 9PB	?	reserve@rejuvlab.com	www.rejuvlab.com		London															
Rejuva Skin Clinic	36 Charles Street Mall, The Broadway Shopping Center			BD1 1US	Nahida Parveen, Amy Dixon, Goda Lucosate	info@rejuvaskin.co.uk	www.rejuvaskin.co.uk	1274800811	Yorkshire and The Humber															
RejuvaMed	Holmes Cottage, Woone Lane, Clitheroe,			BB7 1BG	Dr Grant McKeating	info@rejuvamed.co.uk	www.rejuvamed.co.uk		North West															
Rejuvea Leicestershire	Swithland Leicestershire LE12 8TG				Reeta Kumar	info@rejuvea.co.uk	www.rejuvea.co.uk																	
Rejuvea London	Charterhouse Clinic, 98 Crawford Street, Marylebone			WIH 2HL	Reeta Kumar	info@rejuvea.co.uk	www.rejuvea.co.uk		East Midlands															
Renovatio Clinic	Cherry tree farm Cherry tree lane		Cheshire	WA14 3RZ	Dr Sof Rimouche	info@renovatioclinic.co.uk	www.renovatioclinic.co.uk	1618506818	North West															
Revekka Treatments	10 Market Place		Wetherby	LS22 6NE	Rebecca Tatterton	rebecca_t@hotmail.co.uk	https://www.revekkatreatments.co.uk/	7595354096	Yorkshire and The Humber															
Revere Clinics	100 Harley Street, London,			W1G 7JA	Dr Sach Mohan	www.revereclinics.com/contact-us/	www.revereclinics.com		London															
ReWonder	23 Westgate, Almondbury, Huddersfield.			HD5 8XF	Fiona Wondergem	info@rewonder.co.uk	www.rewonder.co.uk		Yorkshire and The Humber															
River Aesthetics	Unit 1 The Old Sorting Office, 5 Albert Rd,		Bournemouth	BH1 1AX			https://riveraesthetics.com/	1202024060	South West															
Saving Grace Medispa	2 Clare Stables, Vicarage Road, Stony Stratford.			MK11 1BN	Carly & Stephanie Toms	info@sgskinclinic.com	www.savinggracemedispa.com		South East															
Scottish Dentistry	335 Govan Rd, Glasgow			G51 2SE	Fiona Anderson	enquiry@scottishdentistry.com	www.scottishdentistry.com		Scotland															
SDS Rejuvenate Medispa	163-165 Telegraph Rd Heswall		Heswall	CH60 7SE		Heswall@sdsrejuvenate.co.uk	https://sdsrejuvenate.co.uk	1513484878	North West															
Signature Clinic	93A Manchester Rd, Rochdale Glasgow			OL11 4JG	Mr Rohit Seth	hello@signatureclinic.co.uk	www.signatureclinic.co.uk		North West															
Signature Clinic London	Suite 605, 64 North Row Mayfair, London.			W1K 7DA	Dr Melissa McKay / Nurse Toni Harewood / Nurse Rebecca Church	?info@signaturecliniclondon.com	www.signaturecliniclondon.com	2036332806	London															
Signature Clinic London	3a Parkgate, 117 Liverpool Rd, Longton, Preston			PR4 5AA	Dr Eleanor Jolly / Evie Quirk / Chloe Stowe	info@signaturecliniclondon.com	https://signaturecliniclondon.com/	2036332806	North West															
Skin by Hartley Aesthetics	93 Dodworth Road	South Yorkshire	Barnsley	S75 3EG	Emma Trueman	hartleyaesthetics@icloud.com	https://skinbyhartleyaesthetics.co.uk/		Yorkshire and The Humber															
Skin by Simona	1 Adam and Eve Mews, Kensington, London			W8 6UG	Simona	info@skinbysimona.com	www.skinbysimona.com		London															
Skin Decisions	Unit 14 Drake Mill Business park, Plymouth.			PL6 7PS	Dr Alison Elsey	https://alisonelsey.co.uk/contact-dr-alison-elsey/	https://alisonelsey.co.uk/	7702046322	South West															
Skin Doctor Clinics	Manchester, Leeds, York, London				Dr Saleena Zimri	leeds@skindoctorclinics.co.uk	www.skindoctorclinics.co.uk																	
Skin Excellence Clinics Wells	The CheeseYard West Horrington Nr Wells Somerset			BA5 3ED	Dr Ian Strawford	info@skinexcellenceclinics.co.uk	www.skinexcellenceclinics.co.uk		South West															
Skin Excellence Clinics, Dorchester	The Melbury Clinic Higher Barn Holt Mill Dorchester			DT2 0XL	Dr Ian Strawford	info@skinexcellenceclinics.co.uk	www.skinexcellenceclinics.co.uk		South West															
Skin Excellence Clinics, Plymouth	First Floor 4 The Crescent Plymouth Devon			PL1 3AB	Dr Ian Strawford	info@skinexcellenceclinics.co.uk	www.skinexcellenceclinics.co.uk		South West															
Skin Matters	119B Portland Rd, London			W11 4LN	Joanne Evans	enquiries@skin-matters.co.uk	www.skin-matters.co.uk		London															
Skin Radiance Clinics	The Tower Clinic, 8 Tinshill Lane, Cookridge, Leeds,			LS16 7AP	Dr Raj Thethi	info@skinradianceclinics.co.uk	www.skinradianceclinics.co.uk		Yorkshire and The Humber															
Skin+IQ	11 Elystan St, Chelsea, London.			SW3 3NT	?	info@skinplusiq.co.uk	www.skinplusiq.co.uk		London															
Skinesis Medical	259 Pavilion Road London			SW1X 0BP	Dr. Alexis	clinic@sarahchapman.com	www.sarahchapman.com/skinesis-clinic		London															
Skinsthetics Skin Clinic	Liverpool				Robyn	https://phorest.com/book/salons/robynsmakeoverstudio	?																	
Skintec	The Courtyard Building Widbury Hill Farm Widbury Barns, Ware SG12 7QE			SG12 7QE		info@skintec.co.uk	https://skintec.co.uk/	4,47399E+11	Eastern															
Skintique Clinic	342 Welford Road, Leicester,			LE2 6EH	Natalia Hancock RGN	info@skintiqueclinic.com	www.skintiqueclinic.com		East Midlands															
SkinWorx Clinic	145 The Avenue	Alwoodley	Leeds	LS17 7PA		skinworxclinic@gmail.com	https://www.skinworxclinic.co.uk/		Yorkshire and The Humber															
Smileworks Liverpool	Liverpool ONE, 1a Kenyons Steps, Liverpool.		Liverpool	L1 3DF	Dr MJ Rowland-Warmann	concierge@sexydentistry.com	https://www.smileworksliverpool.co.uk/morpheus8-liverpool/	4,41512E+11	North West															
Solihull Medical Cosmetic Clinic	20 Chelmsley Ln, Marston Green, Birmingham			B37 7BG	Dr Victor Sagoo	www.solihullmedicalcosmeticclinic.co.uk/contact-us	www.solihullmedicalcosmeticclinic.co.uk		West Midlands															
Soul Care Aesthetics Ltd	Chase House, Newhall St, Cannock			WS11 1GR	Dr Ian Morgan	soulcareaestheticsltd@yahoo.com	www.soulcareaestheticsltd.co.uk		West Midlands															
Specialist Skin Clinic	10 Penlline Road	Whitchurch	Cardiff	CF14 2AD	Maria Gonzalez	doctorg@rocketmail.com	http://www.specialistskinclinic.co.uk/contact-us/	2920617690	Wales															
Surface Clinic	51 Bingley Rd, Bradford, Shipley			BD18 4SB	Roxy	roxy@surfaceclinic.co.uk	www.surfaceclinic.co.uk		Yorkshire and The Humber															
Surgicare Aesthetics	ME, 177 Bramley Road, Oakwood,		London	N14 4XA	Dr. Prash	surgicareaesthetics@gmail.com	https://surgicareaesthetics.uk																	
Surrey Dental & Aesthetics	40A Station Approach		West byfleet	KT14 6NE	Dr Zahra Siddiqui	info@sdaa.uk	www.sdaa.uk	1932352486	South East															
SV Aesthetics	22 Seymour St, London			W1H 7HY	?	info@svaesthetics.uk	www.svaesthetics.uk		London															
Swiss Care	64 Harley Street		London	W1G 7HB	Katia Herring	Katia@swiss-care.com	https://swiss-care.com/	2088862600	London															
Symmetria Clinic	88 St Mary's Road, Garston, Liverpool.			L19 2NL	Emma	symmetriafacialaesthetics@hotmail.com	www.symmetriaclinic.co.uk		North West															
Synergy Advanced Skincare & Aesthetics Dr Judy Todd	8 Penrith Avenue, Giffnock, Glasgow,			G46 6LU	Dr Judy Todd	judy.todd@icloud.com	www.synergygiffnock.co.uk		Scotland															
Thames Skin Clinic Ltd.	Thames Skin Clinic, 1-3 Baylis Mews, Twickenham,			TW1 3HQ	Dr Anna Hemming	admin@thamesskin.co.uk	www.thamesskin.co.uk		London															
The Aberdeen Clinic	387a North Deeside Road, Cults, Aberdeen.			AB15 9SX	Karen Urquhart	karen.urquhart@tachealthcare.com	www.theaberdeenclinic.com		Scotland															
The Aesthetics Club	49 Mount pleasant		London	WCX1 0AE	Fiona Grant	fiona@theaesteticsclub.co.uk	www.theaestheticsclub.co.uk																	
The Aesthetics Club	161 Milngavie Rd, Bearsden, Glasgow.			G61 3DY	Fiona Grant	info@theaestheticsclub.co.uk	www.theaestheticsclub.co.uk		Scotland															
The Clinic@78	78 Poole Road, Westbourne, Bournemouth, Dorset.			BH4 9DZ	Dr Tom Caudell	info@clinic78.co.uk	www.clinic78.co.uk		South West															
The Colchester Medical Aesthetics Clinic	15 High Street, Cochester			CO1 1DA	Dr Sawsan Ebaji, Dr. Abdullah Mawas & Dr Ali Ghanem	info@colchester-medical-aesthetics.com	www.colchester-medical-aesthetics.com		Eastern															
The Cosmetic Clinic	226 Dogsthorpe Road, Peterborough.			PE1 3PB	Dr Sravanthi Pasapula	peterboroughcosmeticclinic@aol.co.uk	www.ukcosmeticclinic.co.uk		Eastern															
The Courtyard Aesthetic Clinic	The Courtyard, St Cross Business Park, Newport, Isle of Wight.			PO30 5BF	Dr Hayley Elsmore	hello@thecourtyardcliniciw.co.uk	www.thecourtyardcliniciw.co.uk	1983241214	South East															
The Global Clinic	 446 London Rd, Lowfield, Sheffield			S2 4HP	Nadia Fazely	info@globalpharmacy.co.uk	www.globalpharmacy.co.uk		Yorkshire and The Humber															
The Goldsmith Clinic	5 Lordsmill St, Chesterfield. .			S41 7RW	Theresa Goldsmith	info@thegoldsmith.clinic	www.thegoldsmith.clinic		East Midlands															
The Harley Street Skin Clinic	48 Harley St, Marylebone, London.			W1G 9PU	Dr Aamir Khan	Paula Hall <paula@harleystreetskinclinic.com>	www.harleystreetskinclinic.com/en		London															
The Hart Spa	31 London Road, Sevenoaks , Kent			TN13 1AR	Paula Sharpe	info@thehartspasevenoaks.co.uk	www.thehartspasevenoaks.co.uk		South East															
The Hogarth Medispa	Airedale Avenue, Chiswick, London.			W4 2NW	Kellie Lloyd	KellieL@thehogarth.co.uk	www.thehogarthmedispa.co.uk		London															
The London Cosmetic Clinic	2nd Floor, 4 Harley St, Marylebone, London			W1G 9PB	Dr Salinda Johnson	info@thelondoncosmeticclinic.co.uk	www.thelondoncosmeticclinic.co.uk		London															
The Marlowe Clinic	Face & Body Clinic		Durham	DH7 6FE	Dr Raph	hello@themarloweclinic.co.uk	https://www.themarloweclinic.co.uk/		North East															
The Mews Practice Ltd	Elmdon House, 116 London Road, Guildford, Surrey.			GU1 1TN	Dr Kapoor	reception@themewspractice.com	www.themewspractice.com		South East															
The Nimmo Clinic	32 Anyards Road, Surrey. 			KT11 2LA	Dr. Martin Nimmo	info@drmartinnimmo.com	www.drmartinnimmo.com		South East															
The Organic Pharmacy	169 Kensington High Street, Kensington.			W8 6SH	The Organic Pharmacy	kensington@theorganicpharmacy.com	www.theorganicpharmacy.com		London															
The Oxford Wellness Doctor	310 London Road Headington		Oxford	OX3 8DJ	Inga Taganova	ingataganova@hotmail.com			South East															
The Oxford Wellness Doctor	310 London Road, Headington		Oxford	OX3 8DJ	Dr Inga Taganova / Dr Richard Sawyer	inga@theoxfordwellnessdoctor.co.uk	www.theoxfordwellnessdoctor.com		South East															
The Plastic Surgery Group	100 Harley street		London		Louise Holleron	Louise.holleron@thepsg.co.uk	www.theplasticsurgerygroup.co.uk	2037332069																
The Retreatery	2a High Street, East Grinstead, West Sussex.			RH19 3AW	Sharon Angelique	info@theretreatery.com	www.theretreatery.com		South East															
The Sal Clinic	Castell Close, Llansamlet, Swansea			SA7 9FH	Amar Ghattaura	amar@thesalclinic.com	https://thesalclinic.com/	1792797660	Wales															
The Salon	248 High Street Cranleigh Surrey			GU68RL	Chantal Johnson/ Stephanie Taylor		https://visitthesalon.com/	1483272822	London															
The Sanctum	149 King Street, Cottingham, East Yorkshire,			HU16 5QQ	Kara	hello@thesanctum-clinic.com	https://www.thesanctum-clinic.com/	7764785105	Yorkshire and The Humber															
The Sculpt Clinic	50 High St, Sunninghill, Ascot. SL59NF				Dr Deepa Panchalingam	deepa@thesculptclinic.co.uk	www.thesculptclinic.co.uk																	
The Well Clinic	8-9 Lambton Place, Notting Hill,			W11 2SH	Katie Parobek	contact@lazeo.co.uk	https://thewell-clinic.com/		London															
The Wellness Space	47 Darton Road, Cawthorne, Barnsley, South Yorkshire			S75 4HY	Dr Hannah Higgins	eception@thewellnessspace.org.uk	https://www.thewellnessspace.org.uk/#/	7707043739	Yorkshire and The Humber															
The White Rooms Clinic Liverpool	334 Smithdown Rd, Liverpool			L15 5AN	Clare Corless	info@thewhiteroomsclinic.co.uk	www.thewhiteroomsclinic.co.uk		North West															
The Wynyard Clinic	Unit 1 Suite 2, Chapell Lane, Wynyard Business Park, Wynyard.			TS22 5FG	Lynn	info@thewynyardclinic.co.uk	www.phorest.com/book/salons/thewynyardclinic		North East															
Time to Bloom	The Nook, R/O Bluebells 5 Barff Farm Thorpe Willoughby Selby			YO8 9NJ	Dr Lubna Khan-Salim	enquiries@timetobloom.uk	www.timetobloom.uk		Yorkshire and The Humber															
Tracey Bell Dental and Aesthetic Clinic	Kensington Road, Douglas, Isle of Man			IM1 3PE	Dr Tracey Bell, Karen Miller RGN, Mr Ben Caulfield	reinvent@traceybell.co.uk	www.traceybell.co.uk		British Isles															
Trikwan Aesthetics	61 South Molton Street, London,.			W1K 5SN	Dr Sanjay Trikha and Dr Zoya Diwan	info@trikwan.com	www.trikwan.com		London															
Uma Skin Clinic	21 Foxley Lane, Purley, England.			CR8 3EH	Dr Uma	info@umaaesthetics.com	www.umaskinclinic.com		London															
Venus Medical	Venus Medical, Heritage house, Dundrum office park, Dundrum, NIR			D14C 2R2	Peter Prendergast	info@venusmedical.ie	www.venusmedical.ie																	
Victor & Garth Aesthetics	Unit 6, FountLondon, 188 Shoreditch High Street, London,			E1 6HU	Dr Lauren	lauren@victorandgarth.co.uk	www.victorandgarth.co.uk		London															
Vie Aesthetics	2 Harley St, Marylebone, London			W1G 9PA	Dr Ioannis Liakas	info@vie-aesthetics.com	www.vie-aesthetics.com		London															
Vie Asthetics	78 London Hill Road, Rayleigh, Essex.			SS6 7HP	Dr Ioannis Liakas	info@vie-aesthetics.com	www.vie-aesthetics.com		Eastern															
Visage Skin and Aesthetics	Holt Pound Lane	Surrey	Farnham	GU10 4JY	Georgina Abrook	gabrook36@gmail.com	https://visageskinandaesthetics.com/	7885604848	South East															
Visodental	5 Pump St, Londonderry.			BT48 6JG	Dr Patricia Mullan	patricia.mullan1@btinternet.com	www.facebook.com/visodental		Northern Ireland															
Vitalize	Barham Court	Kent	Teston	ME18 5BZ		hello@vitalizeclinic.co.uk	https://www.vitalizeclinic.co.uk/	1622872091	South East															
Vitalize - Skin & Wellness Clinic	Barham Court, Teston, Maidstone ME18 5BZ		Teston, Maidstone	ME18 5BZ	Dr Johanna Ward	hello@vitalizeclinic.co.uk	https://www.vitalizeclinic.co.uk	4,41622E+11	South East															
Westbourne Grove Denta	18, Chepstow Corner		London	W2 4XE	Rebecca Roberts	drsonia@westbournegrovedental.co.uk	https://www.westbournegrovedental.co.uk/		London															
Zenith Cosmetic Clinics	6 Clinton Terrace, Derby Road, Nottingham.			NG7 1LY	Dr Dinesh Maini	info@zenithcosmeticclinics.co.uk	www.zenithcosmeticclinics.co.uk		East Midlands															
																								
																								
																								
																								
																								
																								
																								
																								
																								
																								
																								
																								
																								
																								
																								
																								
																								
																								
																								
																								
																								
																								
																								
																								
																								
																								
																								
																								
																								
																								
																								
																								
																								
																								
																								
																								
																								
																								
																								
																								
																								
																								
																								
																								
																								
																								
																								
																								
																								
																								
																								
																								
																								
																								
																								
																								
																								
																								
																								
																								
																								
																								
																								
																								
																								
																								
																								
																								
																								
																								
																								
																								
																								
																								
																								
																								
																								
																								
																								
																								
																								
																								
																								
																								
																								
																								
																								
																								
																								
																								
																								
																								
																								
																								
																								
																								
																								
																								
																								
																								
																								
																								
																								
																								
																								
																								
																								
																								
																								
																								
																								
																								
																								
																								
																								
																								
																								
																								
																								
																								
																								
																								
																								
																								
																								
																								
																								
																								
																								
																								
																								
																								
																								
																								
																								
																								
																								
																								
																								
																								
																								
																								
																								
																								
																								
																								
																								
																								
																								
																								
																								
																								
																								
																								
																								
																								
																								
																								
																								
																								
																								
																								
																								
																								
																								
																								
																								
																								
																								
																								
																								
																								
																								
																								
																								
																								
																								
																								
																								
																								
																								
																								
																								
																								
																								
																								
																								
																								
																								
																								
																								
																								
																								
																								
																								
																								
																								
																								
																								
																								
																								
																								
																								
																								
																								
																								
																								
																								
																								
																								
																								
																								
																								
																								
																								
																								
																								
																								
																								
																								
																								
																								
																								
																								
																								
																								
																								
																								
																								
																								
																								
																								
																								
																								
																								
																								
																								
																								
																								
																								
																								
																								
																								
																								
																								
																								
																								
																								
																								
																								
																								
																								
																								
																								
																								
																								
																								
																								
																								
																								
																								
																								
																								
																								
																								
																								
																								
																								
																								
																								
																								
																								
																								
																								
																								
																								
																								
																								
																								
																								
																								
																								
																								
																								
																								
																								
																								
																								
																								
																								
																								
																								
																								
																								
																								
																								
																								
																								
																								
																								
																								
																								
																								
																								
																								
																								
																								
																								
																								
																								
																								
																								
																								
																								
																								
																								
																								
																								
																								
																								
																								
																								
																								
																								
																								
																								
																								
																								
																								
																								
																								
																								
																								
																								
																								
																								
																								
																								
																								
																								
																								
																								
																								
																								
																								
																								
																								
																								
																								
																								
																								
																								
																								
																								
																								
																								
																								
																								
																								
																								
																								
																								
																								
																								
																								
																								
																								
																								
																								
																								
																								
																								
																								
																								
																								
																								
																								
																								
																								
																								
																								
																								
																								
																								
																								
																								
																								
																								
																								
																								
																								
																								
																								
																								
																								
																								
																								
																								
																								
																								
																								
																								
																								
																								
																								
																								
																								
																								
																								
																								
																								
																								
																								
																								
																								
																								
																								
																								
																								
																								
																								
																								
																								
																								
																								
																								
																								
																								
																								
																								
																								
																								
																								
																								
																								
																								
																								
																								
																								
																								
																								
																								
																								
																								
																								
																								
																								
																								
																								
																								
																								
																								
																								
																								
																								
																								
																								
																								
																								
																								
																								
																								
																								
																								
																								
																								
																								
																								
																								
																								
																								
																								
																								
																								
																								
																								
																								
																								
																								
																								
																								
																								
																								
																								
																								
																								
																								
																								
																								
																								
																								
																								
																								
																								
																								
																								
																								
																								
																								
																								
																								
																								
																								
																								
																								
																								
																								
																								
																								
																								
																								
																								
																								
																								
																								
																								
																								
																								
																								
																								
																								
																								
																								
																								
																								
																								
																								
																								
																								
																								
																								
																								
																								
																								
																								
																								
																								
																								
																								
																								
																								
																								
																								
																								
																								
																								
																								
																								
																								
																								
																								
																								
																								
																								
																								
																								
																								
																								
																								
																								
																								
																								
																								
																								
																								
																								
																								
																								
																								
																								
																								
																								
																								
																								
																								
																								
																								
																								
																								
																								
																								
																								
																								
																								
																								
																								
																								
																								
																								
																								
																								
																								
																								
																								
																								
																								
																								
																								
																								
																								
																								
																								
																								
																								
																								
																								
																								
																								
																								
																								
																								
																								
																								
																								
																								
																								
																								
																								
																								
																								
																								
																								
																								
																								
																								
																								
																								
																								
																								
																								
																								
																								
																								
																								
																								
																								
																								
																								
																								
																								
																								
																								
																								
																								
																								
																								
																								
																								
																								
																								
																								
																								
																								
																								
																								
																								
																								
																								
																								
																								
																								
																								
																								
																								
																								
																								
																								
																								
																								
																								
																								
																								
																								
																								
																								
																								
																								
																								
																								
																								
																								
																								
																								
																								
																								
																								
																								
																								
																								
																								
																								
																								
																								
																								
																								
																								
																								
																								
																								
																								
																								
																								
																								
																								
																								
																								
																								
																								
																								
																								
																								
																								
																								
																								
																								
																								
																								
																								
																								
																								
																								
																								
																								
																								
